$$SOE
2460721.500000000, A.D. 2025-Feb-15 00:00:00.0000, 4.066211167234349E+08, -1.193875535782638E+08, 1.537848357279629E+06,
2460728.500000000, A.D. 2025-Feb-22 00:00:00.0000, 4.086816209267699E+08, -1.082743038157402E+08, 1.193430311791524E+06,
2460735.500000000, A.D. 2025-Mar-01 00:00:00.0000, 4.104796048421307E+08, -9.709155380477367E+07, 8.482453320323601E+05,
2460742.500000000, A.D. 2025-Mar-08 00:00:00.0000, 4.120120818581308E+08, -8.584605192675894E+07, 5.025110493132919E+05,
2460749.500000000, A.D. 2025-Mar-15 00:00:00.0000, 4.132762635382566E+08, -7.454469403375204E+07, 1.564485922127254E+05,
2460756.500000000, A.D. 2025-Mar-22 00:00:00.0000, 4.142695660916904E+08, -6.319451655845094E+07, -1.897174075683989E+05,
2460763.500000000, A.D. 2025-Mar-29 00:00:00.0000, 4.149896179998567E+08, -5.180269131150234E+07, -5.357591341753155E+05,
2460770.500000000, A.D. 2025-Apr-05 00:00:00.0000, 4.154342690802007E+08, -4.037651883067873E+07, -8.814460048346873E+05,
2460777.500000000, A.D. 2025-Apr-12 00:00:00.0000, 4.156015990191424E+08, -2.892342018439861E+07, -1.226544999993900E+06,
2460784.500000000, A.D. 2025-Apr-19 00:00:00.0000, 4.154899251449721E+08, -1.745092812153926E+07, -1.570820960902940E+06,
2460791.500000000, A.D. 2025-Apr-26 00:00:00.0000, 4.150978096700325E+08, -5.966677784793127E+06, -1.914036895740820E+06,
2460798.500000000, A.D. 2025-May-03 00:00:00.0000, 4.144240664738267E+08, 5.521603013866237E+06, -2.255954302597011E+06,
2460805.500000000, A.D. 2025-May-10 00:00:00.0000, 4.134677674144655E+08, 1.700610394290966E+07, -2.596333510512216E+06,
2460812.500000000, A.D. 2025-May-17 00:00:00.0000, 4.122282481654057E+08, 2.847894265997509E+07, -2.934934044437723E+06,
2460819.500000000, A.D. 2025-May-24 00:00:00.0000, 4.107051137130969E+08, 3.993217559575468E+07, -3.271515033573572E+06,
2460826.500000000, A.D. 2025-May-31 00:00:00.0000, 4.088982438952816E+08, 5.135780929059687E+07, -3.605835675049275E+06,
2460833.500000000, A.D. 2025-Jun-07 00:00:00.0000, 4.068077985417027E+08, 6.274781345359007E+07, -3.937655616488699E+06,
2460840.500000000, A.D. 2025-Jun-14 00:00:00.0000, 4.044342198222229E+08, 7.409413504083136E+07, -4.266735093328238E+06,
2460847.500000000, A.D. 2025-Jun-21 00:00:00.0000, 4.017782329943123E+08, 8.538871003862281E+07, -4.592835198312342E+06,
2460854.500000000, A.D. 2025-Jun-28 00:00:00.0000, 3.988408486515981E+08, 9.662347466924867E+07, -4.915718424637865E+06,
2460861.500000000, A.D. 2025-Jul-05 00:00:00.0000, 3.956233649329987E+08, 1.077903781284025E+08, -5.235149165831275E+06,
2460868.500000000, A.D. 2025-Jul-12 00:00:00.0000, 3.921273684837152E+08, 1.188813959991613E+08, -5.550894127213366E+06,
2460875.500000000, A.D. 2025-Jul-19 00:00:00.0000, 3.883547343439044E+08, 1.298885437144513E+08, -5.862722711683698E+06,
2460882.500000000, A.D. 2025-Jul-26 00:00:00.0000, 3.843076249638854E+08, 1.408038899561411E+08, -6.170407402098104E+06,
2460889.500000000, A.D. 2025-Aug-02 00:00:00.0000, 3.799884884027702E+08, 1.516195699564204E+08, -6.473724142817557E+06,
2460896.500000000, A.D. 2025-Aug-09 00:00:00.0000, 3.754000557293524E+08, 1.623277986320397E+08, -6.772452721958145E+06,
2460903.500000000, A.D. 2025-Aug-16 00:00:00.0000, 3.705453377039933E+08, 1.729208834354843E+08, -7.066377164569870E+06,
2460910.500000000, A.D. 2025-Aug-23 00:00:00.0000, 3.654276210439962E+08, 1.833912368876371E+08, -7.355286160232075E+06,
2460917.500000000, A.D. 2025-Aug-30 00:00:00.0000, 3.600504646170946E+08, 1.937313894521945E+08, -7.638973495118432E+06,
2460924.500000000, A.D. 2025-Sep-06 00:00:00.0000, 3.544176941621006E+08, 2.039340036982336E+08, -7.917238274871692E+06,
2460931.500000000, A.D. 2025-Sep-13 00:00:00.0000, 3.485333938895084E+08, 2.139918872189304E+08, -8.189884985906184E+06,
2460938.500000000, A.D. 2025-Sep-20 00:00:00.0000, 3.424018982666574E+08, 2.238980026124953E+08, -8.456723828393683E+06,
2460945.500000000, A.D. 2025-Sep-27 00:00:00.0000, 3.360277850759352E+08, 2.336454775864851E+08, -8.717571162668496E+06,
2460952.500000000, A.D. 2025-Oct-04 00:00:00.0000, 3.294158677609435E+08, 2.432276156793767E+08, -8.972249838682801E+06,
2460959.500000000, A.D. 2025-Oct-11 00:00:00.0000, 3.225711867239938E+08, 2.526379066154804E+08, -9.220589450084820E+06,
2460966.500000000, A.D. 2025-Oct-18 00:00:00.0000, 3.154989998995767E+08, 2.618700359810037E+08, -9.462426560378492E+06,
2460973.500000000, A.D. 2025-Oct-25 00:00:00.0000, 3.082047727870182E+08, 2.709178941977876E+08, -9.697604912267640E+06,
2460980.500000000, A.D. 2025-Nov-01 00:00:00.0000, 3.006941680274709E+08, 2.797755847793903E+08, -9.925975621897250E+06,
2460987.500000000, A.D. 2025-Nov-08 00:00:00.0000, 2.929730346069992E+08, 2.884374318115075E+08, -1.014739736322951E+07,
2460994.500000000, A.D. 2025-Nov-15 00:00:00.0000, 2.850473968822088E+08, 2.968979865765173E+08, -1.036173656056535E+07,
2461001.500000000, A.D. 2025-Nov-22 00:00:00.0000, 2.769234438815793E+08, 3.051520335258184E+08, -1.056886760809647E+07,
2461008.500000000, A.D. 2025-Nov-29 00:00:00.0000, 2.686075187810175E+08, 3.131945967218042E+08, -1.076867300996000E+07,
2461015.500000000, A.D. 2025-Dec-06 00:00:00.0000, 2.601061063252765E+08, 3.210209466035261E+08, -1.096104324307998E+07,
2461022.500000000, A.D. 2025-Dec-13 00:00:00.0000, 2.514258186792234E+08, 3.286266037057070E+08, -1.114587665790528E+07,
2461029.500000000, A.D. 2025-Dec-20 00:00:00.0000, 2.425733832582954E+08, 3.360073403585651E+08, -1.132307965460442E+07,
2461036.500000000, A.D. 2025-Dec-27 00:00:00.0000, 2.335556315170203E+08, 3.431591829625796E+08, -1.149256682525387E+07,
2461043.500000000, A.D. 2026-Jan-03 00:00:00.0000, 2.243794872850899E+08, 3.500784142298956E+08, -1.165426097891316E+07,
2461050.500000000, A.D. 2026-Jan-10 00:00:00.0000, 2.150519548084156E+08, 3.567615747258020E+08, -1.180809311561449E+07,
2461057.500000000, A.D. 2026-Jan-17 00:00:00.0000, 2.055801067737257E+08, 3.632054636346978E+08, -1.195400237867756E+07,
2461064.500000000, A.D. 2026-Jan-24 00:00:00.0000, 1.959710724382902E+08, 3.694071387924240E+08, -1.209193599130534E+07,
2461071.500000000, A.D. 2026-Jan-31 00:00:00.0000, 1.862320259292705E+08, 3.753639159998146E+08, -1.222184918093683E+07,
2461078.500000000, A.D. 2026-Feb-07 00:00:00.0000, 1.763701748125011E+08, 3.810733675852426E+08, -1.234370510245146E+07,
2461085.500000000, A.D. 2026-Feb-14 00:00:00.0000, 1.663927492192525E+08, 3.865333202288416E+08, -1.245747478552587E+07,
2461092.500000000, A.D. 2026-Feb-21 00:00:00.0000, 1.563069919517734E+08, 3.917418526562090E+08, -1.256313709555539E+07,
2461099.500000000, A.D. 2026-Feb-28 00:00:00.0000, 1.461201485141239E+08, 3.966972943860799E+08, -1.266067851560250E+07,
2461106.500000000, A.D. 2026-Mar-07 00:00:00.0000, 1.358394550353788E+08, 4.013982236109457E+08, -1.275009272067890E+07,
2461113.500000000, A.D. 2026-Mar-14 00:00:00.0000, 1.254721268816538E+08, 4.058434619128581E+08, -1.283138039020681E+07,
2461120.500000000, A.D. 2026-Mar-21 00:00:00.0000, 1.150253497626359E+08, 4.100320687509124E+08, -1.290454918685120E+07,
2461127.500000000, A.D. 2026-Mar-28 00:00:00.0000, 1.045062713430457E+08, 4.139633367830144E+08, -1.296961363467669E+07,
2461134.500000000, A.D. 2026-Apr-04 00:00:00.0000, 9.392199277025142E+07, 4.176367870894658E+08, -1.302659492110822E+07,
2461141.500000000, A.D. 2026-Apr-11 00:00:00.0000, 8.327956040411033E+07, 4.210521639717273E+08, -1.307552067811847E+07,
2461148.500000000, A.D. 2026-Apr-18 00:00:00.0000, 7.258595791734171E+07, 4.242094293518730E+08, -1.311642475856671E+07,
2461155.500000000, A.D. 2026-Apr-25 00:00:00.0000, 6.184809881739178E+07, 4.271087568190450E+08, -1.314934701127765E+07,
2461162.500000000, A.D. 2026-May-02 00:00:00.0000, 5.107281942203113E+07, 4.297505253257092E+08, -1.317433306062534E+07,
2461169.500000000, A.D. 2026-May-09 00:00:00.0000, 4.026687241258980E+07, 4.321353125014333E+08, -1.319143410811752E+07,
2461176.500000000, A.D. 2026-May-16 00:00:00.0000, 2.943692134105064E+07, 4.342638877572758E+08, -1.320070678023839E+07,
2461183.500000000, A.D. 2026-May-23 00:00:00.0000, 1.858953614067902E+07, 4.361372062375129E+08, -1.320221294494361E+07,
2461190.500000000, A.D. 2026-May-30 00:00:00.0000, 7.731187559691588E+06, 4.377564039691890E+08, -1.319601928136745E+07,
2461197.500000000, A.D. 2026-Jun-06 00:00:00.0000, -3.131759804782117E+06, 4.391227909602178E+08, -1.318219684181979E+07,
2461204.500000000, A.D. 2026-Jun-13 00:00:00.0000, -1.399305221731128E+07, 4.402378424706079E+08, -1.316082092661348E+07,
2461211.500000000, A.D. 2026-Jun-20 00:00:00.0000, -2.484654977008566E+07, 4.411031914106366E+08, -1.313197098791343E+07,
2461218.500000000, A.D. 2026-Jun-27 00:00:00.0000, -3.568622931246335E+07, 4.417206215488009E+08, -1.309573043561578E+07,
2461225.500000000, A.D. 2026-Jul-04 00:00:00.0000, -4.650618735682402E+07, 4.420920607749843E+08, -1.305218640928614E+07,
2461232.500000000, A.D. 2026-Jul-11 00:00:00.0000, -5.730064272060485E+07, 4.422195743066826E+08, -1.300142955095154E+07,
2461239.500000000, A.D. 2026-Jul-18 00:00:00.0000, -6.806393882617967E+07, 4.421053578826409E+08, -1.294355378587377E+07,
2461246.500000000, A.D. 2026-Jul-25 00:00:00.0000, -7.879054564899966E+07, 4.417517309637320E+08, -1.287865611398119E+07,
2461253.500000000, A.D. 2026-Aug-01 00:00:00.0000, -8.947506128119941E+07, 4.411611299084867E+08, -1.280683642087486E+07,
2461260.500000000, A.D. 2026-Aug-08 00:00:00.0000, -1.001122129115280E+08, 4.403361011013594E+08, -1.272819733151174E+07,
2461267.500000000, A.D. 2026-Aug-15 00:00:00.0000, -1.106968568228654E+08, 4.392792944968805E+08, -1.264284410821304E+07,
2461274.500000000, A.D. 2026-Aug-22 00:00:00.0000, -1.212239781848756E+08, 4.379934588134620E+08, -1.255088442385069E+07,
2461281.500000000, A.D. 2026-Aug-29 00:00:00.0000, -1.316886929457218E+08, 4.364814370148976E+08, -1.245242791288185E+07,
2461288.500000000, A.D. 2026-Sep-05 00:00:00.0000, -1.420862497040305E+08, 4.347461592171243E+08, -1.234758593013781E+07,
$$EOE